placename,statecode,lat,lon
Anchorage,AK,61.2180556,-149.9002778
Anchorage,AK,61.2180556,-149.9002778
Wasilla,AK,61.5813889,-149.4394444
Alabaster,AL,33.2442813,-86.8163773
Mobile,AL,30.6943566,-88.0430541
Bessemer,AL,33.4017766,-86.954437
Birmingham,AL,33.5206608,-86.80249
Daphne,AL,30.6035255,-87.9036047
Decatur,AL,34.6059254,-86.9833417
Dothan,AL,31.2232313,-85.3904889
Florence,AL,34.79981,-87.677251
Fultondale,AL,33.6048261,-86.79388
Gulf Shores,AL,30.2460361,-87.7008193
Birmingham,AL,33.5206608,-86.80249
Huntsville,AL,34.7303688,-86.5861037
Huntsville,AL,34.7303688,-86.5861037
Madison,AL,33.4442752,-86.9391592
Mobile,AL,30.6943566,-88.0430541
Montgomery,AL,32.3668052,-86.2999689
Opelika,AL,32.6454116,-85.3782795
Oxford,AL,33.6142714,-85.8349648
Prattville,AL,32.4640245,-86.4596966
Birmingham,AL,33.5206608,-86.80249
Tuscaloosa,AL,33.2098407,-87.5691735
Bryant,AR,35.7417441,-91.6520834
Conway,AR,35.0886963,-92.4421011
Fayetteville,AR,36.0625795,-94.1574263
Fort Smith,AR,35.3859242,-94.3985475
Jonesboro,AR,35.8422967,-90.7042791
North Little Rock,AR,34.769536,-92.2670941
Little Rock,AR,34.7464809,-92.2895948
Little Rock,AR,34.7464809,-92.2895948
Rogers,AR,36.3320197,-94.1185366
Phoenix,AZ,33.4483771,-112.0740373
Phoenix,AZ,33.4483771,-112.0740373
Bullhead City,AZ,35.1477774,-114.5682983
Casa Grande,AZ,32.8795022,-111.7573521
Chandler,AZ,33.3061605,-111.8412502
Chandler,AZ,33.3061605,-111.8412502
Chandler,AZ,33.3061605,-111.8412502
Phoenix,AZ,33.4483771,-112.0740373
Scottsdale,AZ,33.5092103,-111.8990327
Flagstaff,AZ,35.1980671,-111.6512725
Fountain Hills,AZ,33.6117105,-111.7173613
Gilbert,AZ,33.3528264,-111.789027
Mesa,AZ,33.4222685,-111.8226402
Gilbert,AZ,33.3528264,-111.789027
Glendale,AZ,33.5386523,-112.1859866
Goodyear,AZ,33.4353199,-112.3582135
Goodyear,AZ,33.4353199,-112.3582135
Mesa,AZ,33.4222685,-111.8226402
Mesa,AZ,33.4222685,-111.8226402
Mesa,AZ,33.4222685,-111.8226402
Mesa,AZ,33.4222685,-111.8226402
Scottsdale,AZ,33.5092103,-111.8990327
Oro Valley,AZ,32.3909071,-110.966488
Phoenix,AZ,33.4483771,-112.0740373
Peoria,AZ,33.5805955,-112.2373779
Peoria,AZ,33.5805955,-112.2373779
Glendale,AZ,33.5386523,-112.1859866
Phoenix,AZ,33.4483771,-112.0740373
Phoenix,AZ,33.4483771,-112.0740373
Tolleson,AZ,33.4500425,-112.259321
Phoenix,AZ,33.4483771,-112.0740373
Prescott,AZ,34.5400242,-112.4685025
Queen Creek,AZ,33.2486639,-111.6342993
Scottsdale,AZ,33.5092103,-111.8990327
Sierra Vista,AZ,31.5545394,-110.3036912
Phoenix,AZ,33.4483771,-112.0740373
Surprise,AZ,33.6305938,-112.333216
Tempe,AZ,33.414768,-111.9093095
Tempe,AZ,33.414768,-111.9093095
Tucson,AZ,32.2217429,-110.926479
Tucson,AZ,32.2217429,-110.926479
Tucson,AZ,32.2217429,-110.926479
Tucson,AZ,32.2217429,-110.926479
Tucson,AZ,32.2217429,-110.926479
Tucson,AZ,32.2217429,-110.926479
Tucson,AZ,32.2217429,-110.926479
Phoenix,AZ,33.4483771,-112.0740373
Yuma,AZ,32.7253249,-114.624397
Albany,CA,37.88687,-122.2977475
Alhambra,CA,34.095287,-118.1270146
Aliso Viejo,CA,33.565038,-117.727116
Anaheim,CA,33.8352932,-117.9145036
Anaheim,CA,33.8352932,-117.9145036
Antioch,CA,38.0049214,-121.805789
Apple Valley,CA,34.5008311,-117.1858759
Atwater,CA,37.3477174,-120.609084
Auburn,CA,38.8965654,-121.0768901
Azusa,CA,34.1336186,-117.9075627
Bakersfield,CA,35.3732921,-119.0187125
Bakersfield,CA,35.3732921,-119.0187125
Bakersfield,CA,35.3732921,-119.0187125
Bakersfield,CA,35.3732921,-119.0187125
San Diego,CA,32.7153292,-117.1572551
Baldwin Park,CA,34.0852868,-117.9608978
Citrus Heights,CA,38.7071247,-121.2810611
Brea,CA,33.9166805,-117.9000604
Garden Grove,CA,33.7739053,-117.9414477
Buena Park,CA,33.8675143,-117.9981181
Burbank,CA,37.3232752,-121.9316233
Camarillo,CA,34.2163937,-119.0376023
Capitola,CA,36.9752283,-121.953293
Carson,CA,33.8314058,-118.2820165
Carson,CA,33.8314058,-118.2820165
Cerritos,CA,33.8583484,-118.0647871
Cerritos,CA,33.8583484,-118.0647871
Chico,CA,39.7284945,-121.8374777
Chino,CA,34.0122346,-117.688944
Chino,CA,34.0122346,-117.688944
Chula Vista,CA,32.6400541,-117.0841955
Chula Vista,CA,32.6400541,-117.0841955
Chula Vista,CA,32.6400541,-117.0841955
Clovis,CA,36.8252277,-119.7029194
Clovis,CA,36.8252277,-119.7029194
Colma,CA,37.6768779,-122.459695
Los Angeles,CA,34.0522342,-118.2436849
Compton,CA,33.8958492,-118.2200712
Corona,CA,33.8752935,-117.5664384
Costa Mesa,CA,33.6411316,-117.9186689
Culver City,CA,34.0211224,-118.3964665
Culver City,CA,34.0211224,-118.3964665
Cupertino,CA,37.3229978,-122.0321823
Cypress,CA,33.8169599,-118.0372852
Daly City,CA,37.7057657,-122.4619166
Davis,CA,38.5449065,-121.7405167
Diamond Bar,CA,34.0286226,-117.8103367
Duarte,CA,34.1394513,-117.9772873
Dublin,CA,37.7021521,-121.9357918
Dublin,CA,37.7021521,-121.9357918
Eastvale,CA,33.9635796,-117.5641823
El Cajon,CA,32.7947731,-116.9625269
El Centro,CA,32.792,-115.5630514
El Dorado Hills,CA,38.6857367,-121.082167
Elk Grove,CA,38.4087993,-121.3716178
Encinitas,CA,33.0369867,-117.2919818
Escondido,CA,33.1192068,-117.086421
Escondido,CA,33.1192068,-117.086421
Eureka,CA,40.8020712,-124.1636729
Fairfield,CA,38.2493581,-122.0399663
Folsom,CA,38.6779591,-121.1760583
Fontana,CA,34.0922335,-117.435048
Fontana,CA,34.0922335,-117.435048
Foothill Ranch,CA,33.6864093,-117.6608836
Fremont,CA,35.1916356,-117.5767246
Fremont,CA,35.1916356,-117.5767246
Fresno,CA,36.7477272,-119.7723661
Fresno,CA,36.7477272,-119.7723661
Fresno,CA,36.7477272,-119.7723661
Fresno,CA,36.7477272,-119.7723661
Fullerton,CA,33.8702924,-117.925338
Fullerton,CA,33.8702924,-117.925338
Garden Grove,CA,33.7739053,-117.9414477
Gardena,CA,33.8883487,-118.3089624
Gilroy,CA,37.0057816,-121.5682751
Glendale,CA,40.8998507,-124.0170056
Granada Hills,CA,34.2647247,-118.5231415
Hanford,CA,36.3274502,-119.6456844
Hawthorne,CA,33.9164032,-118.3525748
Hayward,CA,37.6688205,-122.0807964
Hayward,CA,37.6688205,-122.0807964
Hemet,CA,33.7475203,-116.9719684
Hesperia,CA,34.4263886,-117.3008784
Huntington Beach,CA,33.660297,-117.9992265
Indio,CA,33.7205771,-116.2155619
Inglewood,CA,33.9616801,-118.3531311
Irvine,CA,33.6694649,-117.8231107
Irvine,CA,33.6694649,-117.8231107
Irvine,CA,33.6694649,-117.8231107
San Diego,CA,32.7153292,-117.1572551
Los Angeles,CA,34.0522342,-118.2436849
Los Angeles,CA,34.0522342,-118.2436849
La Habra,CA,33.9319578,-117.9461734
La Quinta,CA,33.6633573,-116.3100095
Lake Elsinore,CA,33.6680772,-117.3272615
Lakewood,CA,33.8536269,-118.1339563
Lancaster,CA,34.6980406,-118.1367393
Lathrop,CA,37.8227046,-121.27661
La Verne,CA,34.1008426,-117.7678355
San Diego,CA,32.7153292,-117.1572551
Lincoln,CA,38.891565,-121.2930079
Livermore,CA,37.6818745,-121.7680088
Lodi,CA,38.1301968,-121.2724473
Long Beach,CA,33.7669623,-118.1892348
Long Beach,CA,33.7669623,-118.1892348
Los Angeles,CA,34.0522342,-118.2436849
Los Angeles,CA,34.0522342,-118.2436849
Canoga Park,CA,34.2011156,-118.5981424
Los Banos,CA,37.0582786,-120.8499151
Manhattan Beach,CA,33.8847361,-118.4109089
Manteca,CA,37.7974273,-121.2160526
Marina,CA,36.6844029,-121.802173
Menifee,CA,33.728354,-117.1464209
Merced,CA,37.3021633,-120.4829677
San Diego,CA,32.7153292,-117.1572551
Mission Viejo,CA,33.6000233,-117.6719953
Mission Viejo,CA,33.6000233,-117.6719953
Modesto,CA,37.6390972,-120.9968782
Montclair,CA,34.0775104,-117.6897776
Moorpark,CA,34.285558,-118.8820414
Moreno Valley,CA,33.937517,-117.2305944
Morgan Hill,CA,37.1305012,-121.6543901
Mountain View,CA,34.5063847,-117.3586577
Murrieta,CA,33.5539143,-117.2139232
Murrieta,CA,33.5539143,-117.2139232
Napa,CA,38.2971367,-122.2855293
Napa,CA,38.2971367,-122.2855293
National City,CA,32.6781085,-117.0991967
Norco,CA,33.9311257,-117.548661
North Hollywood,CA,34.1722281,-118.3789684
Northridge,CA,34.228337,-118.5367525
Northridge,CA,34.228337,-118.5367525
Norwalk,CA,33.9022367,-118.081733
Norwalk,CA,33.9022367,-118.081733
Novato,CA,38.1074199,-122.5697032
Emeryville,CA,37.831316,-122.2852473
Oceanside,CA,33.1958696,-117.3794834
Ontario,CA,34.0633443,-117.6508876
Orange,CA,33.7877945,-117.8531119
San Bernardino,CA,34.1083449,-117.2897652
Oxnard West,CA,-9999,-9999
Pacoima,CA,34.2625025,-118.427027
Cathedral City,CA,33.7797426,-116.4652911
Palmdale,CA,34.5794343,-118.1164613
Palmdale,CA,34.5794343,-118.1164613
Pasadena,CA,34.1477849,-118.1445155
Pasadena,CA,34.1477849,-118.1445155
Paso Robles,CA,35.6266369,-120.6910043
Pico Rivera,CA,33.9830688,-118.096735
Pinole,CA,38.0043667,-122.2988587
Pittsburg,CA,38.0279762,-121.8846806
Pleasant Hill,CA,37.9479786,-122.0607963
Porterville,CA,36.06523,-119.0167679
Poway,CA,32.9628233,-117.0358646
Rowland Heights,CA,33.9761238,-117.9053395
Temecula,CA,33.4936391,-117.1483648
Rancho Cordova,CA,38.5890723,-121.302728
Rancho Cucamonga,CA,34.1063989,-117.5931084
El Cajon,CA,32.7947731,-116.9625269
Rancho Santa Margarita,CA,33.640855,-117.603104
Redding,CA,40.5865396,-122.3916754
Redlands,CA,34.0555693,-117.1825381
Redondo Beach,CA,33.8491816,-118.3884078
Redwood City,CA,37.4852152,-122.2363548
Richmond,CA,37.9357576,-122.3477486
Riverbank,CA,37.7360396,-120.9354895
Riverside,CA,38.5190734,-121.5205112
Riverside,CA,38.5190734,-121.5205112
Riverside,CA,38.5190734,-121.5205112
Rohnert Park,CA,38.3396367,-122.7010984
Rosemead,CA,34.0805651,-118.072846
Roseville,CA,38.7521235,-121.2880059
Roseville,CA,38.7521235,-121.2880059
Sacramento,CA,38.5815719,-121.4943996
Sacramento,CA,38.5815719,-121.4943996
Sacramento,CA,38.5815719,-121.4943996
Sacramento,CA,38.5815719,-121.4943996
Sacramento,CA,38.5815719,-121.4943996
Sacramento,CA,38.5815719,-121.4943996
Salinas,CA,36.6777372,-121.6555013
San Bernardino,CA,34.1083449,-117.2897652
San Clemente,CA,33.4269728,-117.6119925
San Diego,CA,32.7153292,-117.1572551
San Dimas,CA,34.1066756,-117.8067257
San Jose,CA,37.3393857,-121.8949555
San Jose,CA,37.3393857,-121.8949555
San Jose,CA,37.3393857,-121.8949555
San Jose,CA,37.3393857,-121.8949555
San Jose,CA,37.3393857,-121.8949555
San Jose,CA,37.3393857,-121.8949555
San Jose,CA,37.3393857,-121.8949555
San Jose,CA,37.3393857,-121.8949555
San Jose,CA,37.3393857,-121.8949555
San Jose,CA,37.3393857,-121.8949555
San Leandro,CA,37.7249296,-122.1560768
San Luis Obispo,CA,35.2827524,-120.6596156
San Mateo,CA,37.5629917,-122.3255254
San Pedro,CA,33.7358518,-118.2922934
San Francisco,CA,37.7749295,-122.4194155
Sand City,CA,36.6171819,-121.8482855
Santa Ana,CA,33.7455731,-117.8678338
Santa Ana,CA,33.7455731,-117.8678338
Santa Ana,CA,33.7455731,-117.8678338
Santa Clarita,CA,34.3916641,-118.542586
Santa Fe Springs,CA,33.9472359,-118.0853451
Santa Maria,CA,34.9530337,-120.4357191
Santee,CA,32.8383828,-116.9739167
Seal Beach,CA,33.7414065,-118.1047866
Signal Hill,CA,33.8044614,-118.1678456
Simi Valley,CA,34.2694474,-118.781482
Simi Valley,CA,34.2694474,-118.781482
South Gate,CA,33.954737,-118.2120161
San Diego,CA,32.7153292,-117.1572551
Stockton,CA,37.9577016,-121.2907796
Stockton,CA,37.9577016,-121.2907796
Sunnyvale,CA,37.3688301,-122.0363496
San Bruno,CA,37.6304904,-122.4110835
Thousand Oaks,CA,34.1705609,-118.8375937
Torrance,CA,33.8358492,-118.3406288
Tracy,CA,37.7396513,-121.4252227
Tulare,CA,36.2077288,-119.3473379
Turlock,CA,37.4946568,-120.8465941
Tustin,CA,33.7458511,-117.826166
Upland,CA,34.09751,-117.6483876
Vacaville,CA,38.3565773,-121.9877444
Valencia,CA,34.4436063,-118.6095321
Vallejo,CA,38.1040864,-122.2566367
Van Nuys,CA,34.1866718,-118.4489711
Van Nuys,CA,34.1866718,-118.4489711
Ventura,CA,34.2783352,-119.2931676
Ventura,CA,34.2783352,-119.2931676
Victorville,CA,34.5361067,-117.2911565
Visalia,CA,36.3302284,-119.2920585
Visalia,CA,36.3302284,-119.2920585
Vista,CA,33.2000368,-117.2425355
Vista,CA,33.2000368,-117.2425355
Walnut Creek,CA,37.9063131,-122.064963
Watsonville,CA,36.910231,-121.7568946
West Covina,CA,34.0686208,-117.9389526
West Covina,CA,34.0686208,-117.9389526
Fullerton,CA,33.8702924,-117.925338
West Hills,CA,-9999,-9999
West Hollywood,CA,34.0900091,-118.3617443
West Sacramento,CA,38.5804609,-121.530234
Westminster,CA,33.759183,-118.0067271
Westminster,CA,33.759183,-118.0067271
Whittier,CA,33.9791793,-118.032844
Woodland Hills,CA,34.1683386,-118.6059197
Woodland,CA,38.6785157,-121.7732971
Yuba City,CA,39.1404477,-121.6169108
Englewood,CO,39.6477653,-104.9877597
Arvada,CO,39.8027644,-105.0874842
Wheat Ridge,CO,39.766098,-105.0772063
Aurora,CO,39.7294319,-104.8319195
Aurora,CO,39.7294319,-104.8319195
Aurora,CO,39.7294319,-104.8319195
Aurora,CO,39.7294319,-104.8319195
Aurora,CO,39.7294319,-104.8319195
Boulder,CO,40.0149856,-105.2705456
Brighton,CO,39.9852617,-104.8205283
Castle Rock,CO,39.3722121,-104.8560902
Colorado Springs,CO,38.8338816,-104.8213634
Colorado Springs,CO,38.8338816,-104.8213634
Colorado Springs,CO,38.8338816,-104.8213634
Colorado Springs,CO,38.8338816,-104.8213634
Littleton,CO,39.613321,-105.0166498
Denver,CO,39.7391536,-104.9847034
Lakewood,CO,39.7047095,-105.0813734
Highlands Ranch,CO,39.5538771,-104.9694264
Edgewater,CO,39.7530425,-105.0641503
Fort Collins,CO,40.5852602,-105.084423
Fort Collins,CO,40.5852602,-105.084423
Glendale,CO,40.0819301,-105.366382
Glenwood Springs,CO,39.5505376,-107.3247762
Grand Junction,CO,39.0638705,-108.5506486
Greeley,CO,40.4233142,-104.7091322
Highlands Ranch,CO,39.5538771,-104.9694264
Lakewood,CO,39.7047095,-105.0813734
Lone Tree,CO,39.531381,-104.861962
Longmont,CO,40.1672069,-105.1019275
Loveland,CO,40.3977612,-105.0749801
Montrose,CO,38.4783198,-107.8761738
Parker,CO,39.5186002,-104.7613634
Pueblo,CO,38.2544472,-104.609141
Colorado Springs,CO,38.8338816,-104.8213634
Sheridan,CO,39.6469319,-105.025261
Silverthorne,CO,39.632139,-106.074281
Superior,CO,39.9527634,-105.1685977
Thornton,CO,39.8680412,-104.9719243
Westminster,CO,39.8366528,-105.0372046
Westminster,CO,39.8366528,-105.0372046
Ansonia,CT,41.3462078,-73.0789969
Bethel,CT,41.3712063,-73.4140097
Enfield,CT,41.9762077,-72.5917554
Dayville,CT,41.8464872,-71.8875721
Lisbon,CT,-9999,-9999
Meriden,CT,41.5381535,-72.8070435
Milford,CT,41.2223194,-73.0564953
New Britain,CT,41.6612104,-72.7795419
Newington,CT,41.6978777,-72.7237063
North Haven,CT,41.3909305,-72.859545
Orange,CT,41.2784304,-73.0256609
Manchester,CT,41.7759324,-72.5214755
Southington,CT,41.5964869,-72.8776013
Stamford,CT,41.0534302,-73.5387341
Torrington,CT,41.8006523,-73.1212214
Trumbull,CT,41.2428742,-73.2006687
Trumbull,CT,41.2428742,-73.2006687
Waterbury,CT,41.5581525,-73.0514966
Waterford,CT,41.3417,-72.13597
Windsor,CT,41.8525984,-72.6437022
Washington,DC,38.8951118,-77.0363658
Wilmington,DE,39.7459467,-75.5465889
Newark,DE,39.6837226,-75.7496572
Dover,DE,39.158168,-75.5243682
Altamonte Springs,FL,28.6611089,-81.3656243
Aventura,FL,25.9564812,-80.1392121
Miami,FL,25.7742658,-80.1936589
Palm Harbor,FL,28.0780718,-82.7637127
Boynton Beach,FL,26.5253491,-80.0664309
Boynton Beach,FL,26.5253491,-80.0664309
Bradenton,FL,27.4989278,-82.5748194
Brandon,FL,27.937801,-82.2859247
Riverview,FL,30.4060718,-81.6873203
Cape Coral,FL,26.5628537,-81.9495331
Cape Coral,FL,26.5628537,-81.9495331
Casselberry,FL,28.677775,-81.3278455
Clearwater,FL,27.9658533,-82.8001026
Clermont,FL,28.5494447,-81.7728543
Estero,FL,26.438136,-81.8067524
Coral Springs,FL,26.271192,-80.2706044
Coral Springs,FL,26.271192,-80.2706044
Miami,FL,25.7742658,-80.1936589
Miami,FL,25.7742658,-80.1936589
Davie,FL,26.0628665,-80.2331038
Daytona Beach,FL,29.2108147,-81.0228331
Deerfield Beach,FL,26.3184123,-80.0997657
Deerfield Beach,FL,26.3184123,-80.0997657
Delray Beach,FL,26.4614625,-80.0728201
Destin,FL,30.3935337,-86.4957834
Orlando,FL,28.5383355,-81.3792365
Orange Park,FL,30.1660736,-81.706484
Ft Myers,FL,-9999,-9999
Ft Myers,FL,-9999,-9999
Fort Lauderdale,FL,26.1223084,-80.1433786
Fort Myers,FL,26.640628,-81.8723084
Gainesville,FL,29.6516344,-82.3248262
Tampa,FL,27.9475216,-82.4584279
Greenacres,FL,-9999,-9999
Hialeah,FL,25.8575963,-80.2781057
Hollywood,FL,26.0112014,-80.1494901
Orlando,FL,28.5383355,-81.3792365
Jacksonville Beach,FL,30.2946859,-81.3931396
Jacksonville,FL,30.3321838,-81.655651
Jacksonville,FL,30.3321838,-81.655651
Jacksonville,FL,30.3321838,-81.655651
Jacksonville,FL,30.3321838,-81.655651
Miami,FL,25.7742658,-80.1936589
Kissimmee,FL,28.2919557,-81.407571
Kissimmee,FL,28.2919557,-81.407571
The Villages,FL,28.934084,-81.959943
Lake Mary,FL,28.7588833,-81.3178446
Lake Park,FL,26.8003398,-80.0664305
Lakeland,FL,28.0394654,-81.9498042
Lakeland,FL,28.0394654,-81.9498042
Largo,FL,27.9094665,-82.7873244
Lauderhill,FL,26.1403635,-80.2133808
Fort Myers,FL,26.640628,-81.8723084
Leesburg,FL,28.810823,-81.8778582
Mary Esther,FL,30.4099215,-86.6630098
Melbourne Village,FL,28.0852939,-80.6664436
Merritt Island,FL,28.5391651,-80.6719958
Miami,FL,25.7742658,-80.1936589
Miami Gardens,FL,25.9798139,-80.2025475
Miramar,FL,25.9873137,-80.2322706
Mount Dora,FL,28.8024918,-81.644519
Davenport,FL,28.1614046,-81.6017417
Naples,FL,26.1420358,-81.7948103
Naples,FL,26.1420358,-81.7948103
Wesley Chapel,FL,28.2397301,-82.3278658
Tampa,FL,27.9475216,-82.4584279
North Miami Beach,FL,25.9331488,-80.1625463
Sarasota,FL,27.3364347,-82.5306527
Ocala,FL,29.1871986,-82.1400923
Orange City,FL,28.9488761,-81.2986741
Orange Park,FL,30.1660736,-81.706484
Orlando,FL,28.5383355,-81.3792365
Winter Park,FL,28.5999998,-81.3392352
Orlando,FL,28.5383355,-81.3792365
Kissimmee,FL,28.2919557,-81.407571
Orlando,FL,28.5383355,-81.3792365
Jacksonville,FL,30.3321838,-81.655651
Oviedo,FL,28.669997,-81.2081203
Pace,FL,30.5993603,-87.1610808
Palm Coast,FL,29.5849736,-81.2078411
Panama City,FL,30.1588129,-85.6602058
Saint Petersburg,FL,27.7708606,-82.6792661
Pembroke Pines,FL,26.0031465,-80.223937
Pensacola,FL,30.421309,-87.2169149
Pensacola,FL,30.421309,-87.2169149
Pensacola,FL,30.421309,-87.2169149
Panama City Beach,FL,30.1765914,-85.8054879
Pinellas Park,FL,27.8428025,-82.6995444
Plantation,FL,26.1275862,-80.2331036
Port Charlotte,FL,26.9761707,-82.0906448
Port Orange,FL,29.1383165,-80.9956105
Port St Lucie,FL,-9999,-9999
Jacksonville,FL,30.3321838,-81.655651
West Palm Beach,FL,26.7153425,-80.0533746
Sanford,FL,28.8005484,-81.2731203
Sarasota,FL,27.3364347,-82.5306527
Sunrise,FL,26.1339746,-80.1130998
Trinity,FL,28.1808458,-82.6817662
Jacksonville,FL,30.3321838,-81.655651
Spring Hill,FL,28.476885,-82.525461
Spring Hill,FL,28.476885,-82.525461
Saint Augustine,FL,29.894691,-81.314517
Saint Petersburg,FL,27.7708606,-82.6792661
Stuart,FL,27.197548,-80.2528257
Odessa,FL,28.1939007,-82.5917642
Tallahassee,FL,30.4382559,-84.2807329
Tallahassee,FL,30.4382559,-84.2807329
Tampa,FL,27.9475216,-82.4584279
Lutz,FL,28.1511243,-82.4614831
Tampa,FL,27.9475216,-82.4584279
Titusville,FL,28.6122187,-80.8075538
Tampa,FL,27.9475216,-82.4584279
Sarasota,FL,27.3364347,-82.5306527
Tampa,FL,27.9475216,-82.4584279
Venice,FL,27.0997775,-82.4542633
Vero Beach,FL,27.6386434,-80.3972736
Viera,FL,28.2469551,-80.7369994
Orlando,FL,28.5383355,-81.3792365
Lake Worth,FL,26.6159015,-80.056986
Boca Raton,FL,26.3586885,-80.0830984
West Melbourne,FL,28.0716832,-80.6533878
West Palm Beach,FL,26.7153425,-80.0533746
Winter Garden,FL,28.5652787,-81.5861847
Yulee,FL,30.6319034,-81.6064866
Acworth,GA,34.0659329,-84.6768796
Albany,GA,31.5785074,-84.155741
Alpharetta,GA,34.0753762,-84.2940899
Athens,GA,33.960948,-83.3779358
Atlanta,GA,33.7489954,-84.3879824
Atlanta,GA,33.7489954,-84.3879824
Atlanta,GA,33.7489954,-84.3879824
Augusta,GA,33.4709702,-81.9748379
Austell,GA,33.8126059,-84.6343783
Brunswick,GA,31.1499528,-81.4914894
Atlanta,GA,33.7489954,-84.3879824
Atlanta,GA,33.7489954,-84.3879824
Buford,GA,34.1206564,-84.0043513
Canton,GA,34.2367621,-84.4907621
Carrollton,GA,33.5801103,-85.0766113
Cartersville,GA,34.1650972,-84.7999383
Marietta,GA,33.952602,-84.5499327
Kennesaw,GA,34.0234337,-84.6154897
Columbus,GA,32.4609764,-84.9877094
Conyers,GA,33.6676103,-84.0176904
Cumming,GA,34.2073196,-84.1401926
Douglasville,GA,31.3599,-84.6701951
East Point,GA,33.6795531,-84.4393724
Evans,GA,33.5337464,-82.1306747
Fayetteville,GA,33.4487257,-84.4549262
Flowery Branch,GA,34.1851017,-83.9251809
Gainesville,GA,34.2978794,-83.8240663
Duluth,GA,34.0028787,-84.1446376
Hiram,GA,33.8756601,-84.7621592
Suwanee,GA,34.0514898,-84.0712997
Lawrenceville,GA,33.9562149,-83.9879625
Lithonia,GA,33.7123305,-84.1051939
Macon,GA,32.8406946,-83.6324022
Marietta,GA,33.952602,-84.5499327
Mcdonough,GA,33.4473361,-84.1468616
Milton,GA,34.1321631,-84.300666
Morrow,GA,33.5831662,-84.3393683
Newnan,GA,33.3806716,-84.7996573
Norcross,GA,33.9412127,-84.2135309
Atlanta,GA,33.7489954,-84.3879824
Tucker,GA,33.8545479,-84.2171424
Peachtree City,GA,33.3967829,-84.5957629
Duluth,GA,34.0028787,-84.1446376
Alpharetta,GA,34.0753762,-84.2940899
Roswell,GA,34.0231553,-84.3615928
Sandy Springs,GA,33.9242688,-84.3785379
Savannah,GA,32.0835407,-81.0998342
Savannah,GA,32.0835407,-81.0998342
Smyrna,GA,33.5981814,-83.4048862
Snellville,GA,33.857328,-84.0199108
Valdosta,GA,30.8327022,-83.2784851
Warner Robins,GA,32.6209775,-83.5999048
Marietta,GA,33.952602,-84.5499327
Bethlehem,GA,34.9020296,-84.0774118
Woodstock,GA,34.1014873,-84.5193754
Hilo,HI,19.7297222,-155.09
Kailua-Kona,HI,-9999,-9999
Honolulu,HI,21.3069444,-157.8583333
Kapolei,HI,21.3347,-158.0808
Altoona,IA,41.6441557,-93.4646571
Ames,IA,42.0347081,-93.6199402
Ankeny,IA,41.7297102,-93.6057734
West Burlington,IA,40.8250386,-91.1565357
Cedar Falls,IA,42.5277622,-92.4454654
Cedar Rapids,IA,42.0083328,-91.6440683
Cedar Rapids,IA,42.0083328,-91.6440683
Clinton,IA,41.8444735,-90.1887379
Council Bluffs,IA,41.2619444,-95.8608333
Davenport,IA,41.5236437,-90.5776367
Des Moines,IA,41.6005448,-93.6091064
Dubuque,IA,42.5005583,-90.6645718
Fort Dodge,IA,42.4974694,-94.1680158
Coralville,IA,41.6764044,-91.5804475
Mason City,IA,43.1535728,-93.2010367
Ottumwa,IA,41.0200145,-92.4112963
Sioux City,IA,42.4999942,-96.4003069
Des Moines,IA,41.6005448,-93.6091064
Urbandale,IA,41.6266555,-93.7121656
Waterloo,IA,42.4927641,-92.3429631
West Des Moines,IA,41.5772115,-93.711332
West Des Moines,IA,41.5772115,-93.711332
Boise,ID,43.6135002,-116.2034505
Boise,ID,43.6135002,-116.2034505
Coeur d'Alene,ID,47.6776832,-116.7804664
Idaho Falls,ID,43.4665809,-112.0341374
Nampa,ID,43.5407172,-116.5634624
Twin Falls,ID,42.5629668,-114.4608711
Algonquin,IL,42.1655801,-88.2942493
Alton,IL,38.8906038,-90.1842764
Arlington Heights,IL,39.8197723,-89.6014875
Batavia,IL,41.8500284,-88.3125738
Bedford Park,IL,41.7628101,-87.8000551
Belleville,IL,38.5200504,-89.9839935
Normal,IL,40.5142026,-88.9906312
Bolingbrook,IL,41.6986416,-88.0683955
Bourbonnais,IL,41.1416991,-87.8750429
Broadview,IL,41.8639201,-87.8533931
Chicago,IL,41.850033,-87.6500523
Calumet City,IL,41.6155909,-87.5294871
Champaign,IL,40.1164205,-88.2433829
Chicago,IL,41.850033,-87.6500523
Chicago,IL,41.850033,-87.6500523
Chicago,IL,41.850033,-87.6500523
Chicago,IL,41.850033,-87.6500523
Chicago,IL,41.850033,-87.6500523
Chicago,IL,41.850033,-87.6500523
Chicago,IL,41.850033,-87.6500523
Chicago,IL,41.850033,-87.6500523
Chicago,IL,41.850033,-87.6500523
Chicago,IL,41.850033,-87.6500523
Chicago,IL,41.850033,-87.6500523
Cicero,IL,41.8455878,-87.7539448
Crestwood,IL,41.6611444,-87.7525511
Crystal Lake,IL,42.2411344,-88.3161965
Dekalb,IL,41.9294736,-88.7503647
Decatur,IL,39.8403147,-88.9548001
Edwardsville,IL,38.8114364,-89.953157
Elgin,IL,42.0372487,-88.2811895
Evanston,IL,42.0411414,-87.6900587
Fairview Heights,IL,38.5889386,-89.990382
Galesburg,IL,40.9478158,-90.3712395
Glendale Heights,IL,41.9103068,-88.0717353
Glenview,IL,42.0697509,-87.7878408
Niles,IL,42.0189191,-87.8028402
Gurnee,IL,42.3702996,-87.9020186
Highland Park,IL,42.1816919,-87.8003438
Hillside,IL,41.8778084,-87.9028398
Hodgkins,IL,41.7689207,-87.857835
HoffMan Estates,IL,42.0428052,-88.079795
Homewood,IL,41.5572567,-87.6656015
Joliet,IL,41.525031,-88.0817252
Lake Zurich,IL,42.1969689,-88.0934108
Lemont,IL,41.673642,-88.0017261
Lombard,IL,41.8800296,-88.0078435
Machesney Park,IL,42.3472406,-89.0389956
Marion,IL,37.7306054,-88.9331256
Matteson,IL,41.5039235,-87.7131018
Mchenry,IL,42.333355,-88.2667534
Melrose Park,IL,41.9005865,-87.8567277
Mundelein,IL,42.263079,-88.0039653
Naperville,IL,41.7858629,-88.1472893
New Lenox,IL,41.5119761,-87.9656098
Niles,IL,42.0189191,-87.8028402
Norridge,IL,41.9633641,-87.827284
North Aurora,IL,41.8061399,-88.3272952
Oak Lawn,IL,41.7108662,-87.7581081
Orland Park,IL,41.6303103,-87.8539425
Oswego,IL,41.6828074,-88.3514596
Palatine,IL,42.1103041,-88.03424
Peoria,IL,40.6936488,-89.5889864
Peru,IL,41.3275349,-89.1289728
Plainfield,IL,41.6269745,-88.2039539
Rockford,IL,42.2711311,-89.0939952
Romeoville,IL,41.6475306,-88.0895061
Rosemont,IL,41.9953077,-87.8845092
Moline,IL,41.5067003,-90.5151342
Shiloh,IL,38.5614383,-89.8973233
Shorewood,IL,41.5200305,-88.2017293
South Elgin,IL,41.9941938,-88.2922996
Springfield,IL,39.8017171,-89.6437107
St Charles,IL,-9999,-9999
Streamwood,IL,42.0255827,-88.1784085
Tinley Park,IL,41.5733669,-87.7844944
Vernon Hills,IL,42.2194686,-87.9795188
Villa Park,IL,41.8897519,-87.9889543
Warrenville,IL,41.817807,-88.1734021
Waukegan,IL,42.3636331,-87.8447938
West Dundee,IL,42.0980812,-88.2828581
Schaumburg,IL,42.0333608,-88.0834059
Wheaton,IL,41.8661403,-88.1070127
Wheeling,IL,42.1391928,-87.9289591
Willowbrook,IL,41.7697533,-87.9358931
Wood Dale,IL,41.9633625,-87.9789562
Schaumburg,IL,42.0333608,-88.0834059
Woodridge,IL,42.1528038,-87.8092324
Yorkville,IL,41.6411409,-88.4472948
Anderson,IN,40.1053196,-85.6802541
Avon,IN,39.7628227,-86.3997168
Bloomington,IN,39.165325,-86.5263857
Carmel,IN,39.9783711,-86.1180435
Carmel,IN,39.9783711,-86.1180435
Indianapolis,IN,39.7683765,-86.1580423
Columbus,IN,39.2014405,-85.9213796
Indianapolis,IN,39.7683765,-86.1580423
Evansville,IN,37.9747644,-87.5558482
Evansville,IN,37.9747644,-87.5558482
Fishers,IN,39.9555928,-86.0138729
Fort Wayne,IN,41.1306041,-85.1288597
Fort Wayne,IN,41.1306041,-85.1288597
Fort Wayne,IN,41.1306041,-85.1288597
Goshen,IN,38.6714479,-85.7096876
Greenwood,IN,40.8444917,-85.1769148
Highland,IN,38.0397647,-87.5730726
Indianapolis,IN,39.7683765,-86.1580423
Kokomo,IN,40.486427,-86.1336033
Lafayette,IN,40.4167022,-86.8752869
Merrillville,IN,41.4828144,-87.3328139
Granger,IN,41.7533819,-86.1108377
Muncie,IN,40.1933767,-85.3863599
Munster,IN,41.5644798,-87.5125412
New Albany,IN,38.2856247,-85.8241312
Indianapolis,IN,39.7683765,-86.1580423
Plainfield,IN,41.7081013,-86.4766832
South Bend,IN,41.6833813,-86.2500066
Indianapolis,IN,39.7683765,-86.1580423
St John,IN,-9999,-9999
Valparaiso,IN,41.4730948,-87.0611412
Indianapolis,IN,39.7683765,-86.1580423
Clarksville,IN,40.0322601,-85.9124816
Derby,KS,37.5455735,-97.2689331
Garden City,KS,37.9716898,-100.8726618
Hutchinson,KS,38.0608445,-97.9297743
Kansas City,KS,39.1141708,-94.627457
Lawrence,KS,38.9716689,-95.2352501
Manhattan,KS,39.1836082,-96.5716694
Mission,KS,39.0277832,-94.6557914
Olathe,KS,38.8813958,-94.8191285
Olathe,KS,38.8813958,-94.8191285
Overland Park,KS,38.9822282,-94.6707917
Overland Park,KS,38.9822282,-94.6707917
Overland Park,KS,38.9822282,-94.6707917
Salina,KS,38.8402805,-97.6114237
Shawnee,KS,39.0416718,-94.7202376
Topeka,KS,39.0483336,-95.6780371
Wichita,KS,37.6922361,-97.3375448
Wichita,KS,37.6922361,-97.3375448
Wichita,KS,37.6922361,-97.3375448
Wichita,KS,37.6922361,-97.3375448
Louisville,KY,38.2542376,-85.759407
Bowling Green,KY,36.9903199,-86.4436018
Louisville,KY,38.2542376,-85.759407
Elizabethtown,KY,37.693952,-85.8591285
Florence,KY,38.9989499,-84.6266111
Louisville,KY,38.2542376,-85.759407
Lexington,KY,37.9886892,-84.4777153
Lexington,KY,37.9886892,-84.4777153
Louisville,KY,38.2542376,-85.759407
Louisville,KY,38.2542376,-85.759407
Newport,KY,39.091449,-84.4957757
Owensboro,KY,37.7742152,-87.1133304
Louisville,KY,38.2542376,-85.759407
Louisville,KY,38.2542376,-85.759407
Alexandria,LA,31.3112936,-92.4451371
Baton Rouge,LA,30.4507462,-91.154551
Baton Rouge,LA,30.4507462,-91.154551
Bossier City,LA,32.5159852,-93.7321229
Covington,LA,30.4754702,-90.1009108
Hammond,LA,30.5043583,-90.4611995
Harvey,LA,29.9035387,-90.0772944
Houma,LA,29.5957696,-90.7195348
Kenner,LA,29.9940924,-90.2417434
Lafayette,LA,30.2240897,-92.0198427
Lafayette,LA,30.2240897,-92.0198427
Lake Charles,LA,30.2265949,-93.2173759
Metairie,LA,29.9840922,-90.1528519
Monroe,LA,32.8151348,-92.2056923
Shreveport,LA,32.5251516,-93.7501789
Slidell,LA,30.2751945,-89.7811745
Abington,MA,42.1048228,-70.9453218
Dorchester,MA,42.2973205,-71.0744952
Braintree,MA,42.2223218,-70.999492
Danvers,MA,42.5750946,-70.9300507
South Easton,MA,42.0473222,-71.0814358
Everett,MA,42.40843,-71.0536625
Framingham,MA,42.2792625,-71.416172
Hadley,MA,42.3417565,-72.5884222
Hanover,MA,42.1131572,-70.8119859
Haverhill,MA,42.7762015,-71.0772796
Holyoke,MA,42.2042587,-72.6162009
Kingston,MA,42.4153734,-71.2445006
Lanesboro,MA,-9999,-9999
Leominster,MA,42.5250906,-71.759794
Lowell,MA,42.6334247,-71.3161718
Marlborough,MA,42.3459271,-71.5522874
Marlborough,MA,42.3459271,-71.5522874
Methuen,MA,42.7262016,-71.1908924
Milford,MA,42.1398188,-71.516174
Millbury,MA,42.1939835,-71.7600702
North Attleboro,MA,41.9834324,-71.3328328
North Dartmouth,MA,41.6389926,-70.9703171
Plainville,MA,42.3775896,-72.5495324
Revere,MA,42.4084302,-71.0119948
Salem,MA,42.51954,-70.8967155
Saugus,MA,42.4648183,-71.010051
Seekonk,MA,41.808434,-71.3369973
Somerville,MA,42.3875968,-71.0994968
Stoughton,MA,42.1250995,-71.1022712
Swansea,MA,41.7481575,-71.1897684
Taunton,MA,41.900101,-71.0897675
Wareham,MA,41.7626037,-70.7217017
Watertown,MA,42.3709299,-71.1828321
Westborough,MA,42.2695387,-71.6161777
Woburn,MA,42.4792618,-71.1522766
Worcester,MA,42.2625932,-71.8022934
Aberdeen,MD,39.5095556,-76.1641197
Abingdon,MD,39.4623305,-76.2791236
Annapolis,MD,38.9784453,-76.4921829
Baltimore,MD,39.2903848,-76.6121893
Bel Air,MD,39.5359406,-76.3482931
Bowie,MD,38.9427778,-76.7302778
Brandywine,MD,38.6967833,-76.8477485
Columbia,MD,39.2403841,-76.8394184
Gambrills,MD,39.067054,-76.6652449
Easton,MD,38.7742826,-76.0763305
Ellicott City,MD,39.2673284,-76.7983067
District Heights,MD,38.8576128,-76.8894171
Frederick,MD,39.4142688,-77.4105409
Gaithersburg,MD,39.1434406,-77.2013705
Germantown,MD,39.1731621,-77.2716502
Glen Burnie,MD,39.1626084,-76.6246886
Glen Burnie,MD,39.1626084,-76.6246886
Greenbelt,MD,39.0045544,-76.8755282
Hagerstown,MD,39.6417629,-77.7199932
La Plata,MD,38.5292877,-76.9752514
Bowie,MD,38.9427778,-76.7302778
Largo,MD,38.8976121,-76.8302489
Laurel,MD,39.0992752,-76.8483061
California,MD,38.3004029,-76.5074542
Middle River,MD,39.3342744,-76.4394056
Owings Mills,MD,39.4195499,-76.7802529
Pikesville,MD,39.3742729,-76.7224727
Hyattsville,MD,38.9559442,-76.9455301
Rockville,MD,39.0839973,-77.1527578
Salisbury,MD,38.3606736,-75.5993692
Silver Spring,MD,38.9906657,-77.026088
Cockeysville,MD,39.4812172,-76.6438598
Towson,MD,39.4014955,-76.6019125
Waldorf,MD,38.6245628,-76.9391395
Westminster,MD,39.5753791,-76.9958149
Wheaton,MD,39.0398314,-77.0552555
Baltimore,MD,39.2903848,-76.6121893
Augusta,ME,44.3106241,-69.7794897
Bangor,ME,44.8011821,-68.7778138
Biddeford,ME,43.4925843,-70.4533844
South Portland,ME,43.6414716,-70.2408811
Topsham,ME,43.9275797,-69.9758839
Allen Park,MI,42.2575385,-83.2110375
Ann Arbor,MI,42.2708716,-83.7263294
Ypsilanti,MI,42.2411499,-83.6129939
Auburn Hills,MI,42.6875323,-83.2341028
Battle Creek,MI,42.3211522,-85.1797142
Bay City,MI,43.5944677,-83.8888648
Benton Harbor,MI,42.1167065,-86.4541894
Bloomfield Hills,MI,42.583645,-83.2454883
Brighton,MI,42.5294773,-83.7802214
Canton,MI,42.3086486,-83.4821579
Canton,MI,42.3086486,-83.4821579
Chesterfield,MI,42.6628105,-82.8424208
Clinton Township,MI,-9999,-9999
Walled Lake,MI,42.537811,-83.4810481
Dearborn,MI,42.3222599,-83.1763145
Dearborn Heights,MI,42.3369816,-83.2732627
Flint,MI,43.0125274,-83.6874562
Okemos,MI,42.722257,-84.4274744
Harper Woods,MI,42.4330924,-82.9240833
Farmington Hills,MI,42.4853125,-83.3771553
Fenton,MI,42.7978061,-83.7049498
Flint,MI,43.0125274,-83.6874562
Grand Rapids,MI,42.9633599,-85.6680863
Walker,MI,43.0014133,-85.7680915
Caledonia,MI,42.7891985,-85.5166864
Grandville,MI,42.9097484,-85.7630885
Howell,MI,42.6072552,-83.9293952
Holland,MI,42.7875235,-86.1089301
Jackson,MI,42.245869,-84.4013462
Portage,MI,42.2011538,-85.5800022
Kalamazoo,MI,42.2917069,-85.5872286
Shelby Township,MI,-9999,-9999
Lansing,MI,42.732535,-84.5555347
Livonia,MI,42.36837,-83.3527097
Macomb,MI,42.7008653,-82.9590938
Madison Heights,MI,42.4858692,-83.1052028
Marquette,MI,46.5435442,-87.395417
Midland,MI,43.6155825,-84.2472117
Monroe,MI,41.9164343,-83.3977101
Mount Pleasant,MI,43.5978075,-84.7675139
Southfield,MI,42.4733689,-83.2218731
Muskegon,MI,43.2341813,-86.2483921
Novi,MI,42.48059,-83.4754913
Fort Gratiot,MI,-9999,-9999
Rochester Hills,MI,42.6583661,-83.1499322
Saginaw,MI,43.4194699,-83.9508068
Shelby Township,MI,-9999,-9999
Southfield,MI,42.4733689,-83.2218731
Taylor,MI,42.240872,-83.2696509
Sterling Heights,MI,42.5803122,-83.0302033
Sterling Heights,MI,42.5803122,-83.0302033
Traverse City,MI,44.7630567,-85.6206317
Troy,MI,42.6055893,-83.1499304
Warren,MI,42.49982,-83.005486
Lansing,MI,42.732535,-84.5555347
Livonia,MI,42.36837,-83.3527097
Westland,MI,42.324204,-83.400211
Woodhaven,MI,42.1389303,-83.2415951
Wyoming,MI,42.9133602,-85.7053085
Alexandria,MN,45.8852397,-95.3775379
Andover,MN,45.2332985,-93.2913405
Apple Valley,MN,44.7319094,-93.21772
Apple Valley,MN,44.7319094,-93.21772
Austin,MN,43.6666296,-92.9746367
Bemidji,MN,47.4735633,-94.8802767
Blaine,MN,45.1607987,-93.2349489
Bloomington,MN,44.840798,-93.2982799
Baxter,MN,46.3433005,-94.286666
Brooklyn Center,MN,45.076076,-93.3327284
Brooklyn Park,MN,45.0941315,-93.3563405
Buffalo,MN,45.1719084,-93.8746941
Burnsville,MN,44.7677424,-93.2777226
Cambridge,MN,45.5727408,-93.2243921
Champlin,MN,45.1888539,-93.3974538
Chanhassen,MN,44.8621853,-93.5307883
Chaska,MN,44.7894072,-93.6021791
Coon Rapids,MN,45.1199652,-93.2877277
Cottage Grove,MN,44.8277446,-92.9438218
Crystal,MN,45.0327425,-93.3602287
Duluth,MN,46.7832731,-92.1065787
Eagan,MN,44.8041322,-93.1668858
Saint Paul,MN,44.9444101,-93.0932742
Eden Prairie,MN,44.8546856,-93.470786
Edina,MN,44.8896866,-93.3499489
Fergus Falls,MN,46.2830152,-96.0775581
Forest Lake,MN,45.2788561,-92.9852184
Fridley,MN,45.0860765,-93.2632821
Grand Rapids,MN,47.2371658,-93.5302142
Hastings,MN,44.7433008,-92.8524273
Hutchinson,MN,44.8877401,-94.3697057
Inver Grove Heights,MN,44.8480218,-93.0427153
St Louis Park,MN,-9999,-9999
Minneapolis,MN,44.9799654,-93.2638361
Lakeville,MN,44.6496868,-93.24272
Lino Lakes,MN,45.1602442,-93.0888324
Mankato,MN,44.1635775,-93.9993996
Maple Grove,MN,45.0724642,-93.4557877
Medina,MN,45.0352411,-93.5824586
Minneapolis,MN,44.9799654,-93.2638361
Minnetonka,MN,44.9132965,-93.5032877
Monticello,MN,45.3055202,-93.7941378
Moorhead,MN,46.8738524,-96.7675807
Minneapolis,MN,44.9799654,-93.2638361
New Ulm,MN,44.3124626,-94.4605287
North Saint Paul,MN,45.0124657,-92.9918828
Northfield,MN,44.4582983,-93.161604
Coon Rapids,MN,45.1199652,-93.2877277
Oakdale,MN,44.9630216,-92.9649361
Otsego,MN,45.2741314,-93.5913502
Owatonna,MN,44.0838517,-93.226044
Plymouth,MN,45.0105194,-93.4555093
Red Wing,MN,44.5624676,-92.5338013
Richfield,MN,44.8832982,-93.2830021
Minnetonka,MN,44.9132965,-93.5032877
Rochester,MN,44.0216306,-92.4698992
Rochester,MN,44.0216306,-92.4698992
Rogers,MN,45.1888534,-93.5530144
Roseville,MN,45.0060767,-93.1566107
Savage,MN,44.7791309,-93.336336
Shakopee,MN,44.7980186,-93.5268986
Shoreview,MN,45.0791325,-93.1471668
Saint Cloud,MN,45.5607986,-94.1624895
Saint Cloud,MN,45.5607986,-94.1624895
St Louis Park,MN,-9999,-9999
Saint Paul,MN,44.9444101,-93.0932742
Stillwater,MN,45.0563558,-92.8060408
Vadnais Heights,MN,45.0574659,-93.0738306
Virginia,MN,47.5232596,-92.5365713
Waconia,MN,44.8507957,-93.7869088
West St Paul,MN,-9999,-9999
Willmar,MN,45.1219075,-95.0433424
Winona,MN,44.049963,-91.6393152
Woodbury,MN,46.6791141,-92.9599311
Woodbury,MN,46.6791141,-92.9599311
Arnold,MO,38.4328317,-90.3776187
Ballwin,MO,38.5950533,-90.5462339
Belton,MO,38.8119527,-94.5318982
Blue Springs,MO,39.0169509,-94.2816148
Branson,MO,36.6436731,-93.2185144
Brentwood,MO,38.6175522,-90.3492829
Bridgeton,MO,38.7669954,-90.4115057
Cape Girardeau,MO,37.3058839,-89.5181476
Chesterfield,MO,38.6631083,-90.5770675
Columbia,MO,38.9517053,-92.3340724
Dardenne Prairie,MO,38.7694969,-90.7290157
Fenton,MO,38.5131094,-90.4359532
Florissant,MO,38.789217,-90.322614
Saint Louis,MO,38.6272733,-90.1978889
Independence,MO,39.0911161,-94.4155068
Jefferson City,MO,38.5767017,-92.1735164
Jennings,MO,38.7192175,-90.2603903
Joplin,MO,37.0842271,-94.513281
Kansas City,MO,39.0997266,-94.5785667
Kansas City,MO,39.0997266,-94.5785667
Kansas City,MO,39.0997266,-94.5785667
Kirkwood,MO,38.5833862,-90.406785
Lees Summit,MO,38.9108408,-94.3821724
Kansas City,MO,39.0997266,-94.5785667
O Fallon,MO,-9999,-9999
Osage Beach,MO,38.1503113,-92.6179621
Saint Louis,MO,38.6272733,-90.1978889
Springfield,MO,37.215326,-93.2982436
Saint Charles,MO,38.78394,-90.4812298
St. Joseph,MO,-9999,-9999
Saint Peters,MO,38.8003294,-90.6265121
Kansas City,MO,39.0997266,-94.5785667
Chesterfield,MO,38.6631083,-90.5770675
Kansas City,MO,39.0997266,-94.5785667
Washington,MO,38.5581072,-91.0120878
Wentzville,MO,38.81144,-90.8529107
D'iberville,MS,30.4263092,-88.8908638
Flowood,MS,32.3095903,-90.1389757
Hattiesburg,MS,31.3271189,-89.2903392
Horn Lake,MS,34.9553719,-90.0348139
Jackson,MS,32.2987573,-90.1848103
Olive Branch,MS,34.9617605,-89.8295315
Billings,MT,45.7832856,-108.5006904
Billings,MT,45.7832856,-108.5006904
Bozeman,MT,45.6796526,-111.0385582
Great Falls,MT,47.5002354,-111.3008083
Helena,MT,46.5927122,-112.036109
Kalispell,MT,48.1957925,-114.3129081
Missoula,MT,46.872146,-113.9939982
Apex,NC,35.732652,-78.8502856
Asheville,NC,35.6009452,-82.554015
Arden,NC,35.4662258,-82.51651
Burlington,NC,36.0956918,-79.4377991
Cary,NC,35.79154,-78.7811169
Charlotte,NC,35.2270869,-80.8431268
Charlotte,NC,35.2270869,-80.8431268
Charlotte,NC,35.2270869,-80.8431268
Charlotte,NC,35.2270869,-80.8431268
Matthews,NC,35.1168131,-80.7236804
Charlotte,NC,35.2270869,-80.8431268
Charlotte,NC,35.2270869,-80.8431268
Durham,NC,35.9940329,-78.898619
Durham,NC,35.9940329,-78.898619
Fayetteville,NC,35.0526641,-78.8783585
Garner,NC,35.7112642,-78.6141709
Garner,NC,35.7112642,-78.6141709
Gastonia,NC,35.262082,-81.1873005
Goldsboro,NC,35.3848841,-77.9927651
Greensboro,NC,36.0726355,-79.7919754
Greensboro,NC,36.0726355,-79.7919754
Greensboro,NC,36.0726355,-79.7919754
Greenville,NC,35.2454198,-80.8425711
Hickory,NC,36.1290414,-77.8010897
High Point,NC,35.9556924,-80.0053176
Huntersville,NC,35.410694,-80.8428504
Jacksonville,NC,34.7540524,-77.4302415
Concord,NC,34.8376684,-78.1161014
Kernersville,NC,36.1198589,-80.0736533
Knightdale,NC,35.7876516,-78.4805563
Monroe,NC,34.9854275,-80.5495112
Mooresville,NC,35.5848596,-80.8100724
Morrisville,NC,35.823483,-78.8255621
Charlotte,NC,35.2270869,-80.8431268
New Bern,NC,35.1084931,-77.0441143
Charlotte,NC,35.2270869,-80.8431268
Raleigh,NC,35.772096,-78.6386145
Raleigh,NC,35.772096,-78.6386145
Raleigh,NC,35.772096,-78.6386145
Raleigh,NC,35.772096,-78.6386145
Rocky Mount,NC,35.9382103,-77.790534
Wake Forest,NC,35.9798734,-78.5097228
Wesley Chapel,NC,35.0070935,-80.6745131
Wilmington,NC,34.2257256,-77.9447102
Wilson,NC,35.594004,-82.4265105
Winston Salem,NC,-9999,-9999
Winston Salem,NC,-9999,-9999
Bismarck,ND,46.8083268,-100.7837392
Fargo,ND,46.8771863,-96.7898034
Grand Forks,ND,47.9252568,-97.0328547
Minot,ND,48.2325095,-101.2962732
Bellevue,NE,41.1366656,-95.8908446
Kearney,NE,40.699457,-99.0814767
Lincoln,NE,40.8000011,-96.6669599
Lincoln,NE,40.8000011,-96.6669599
Lincoln,NE,40.8000011,-96.6669599
Norfolk,NE,42.0283379,-97.4169964
Omaha,NE,41.2586096,-95.937792
Omaha,NE,41.2586096,-95.937792
Omaha,NE,41.2586096,-95.937792
Omaha,NE,41.2586096,-95.937792
Omaha,NE,41.2586096,-95.937792
Omaha,NE,41.2586096,-95.937792
Papillion,NE,41.1544433,-96.0422378
Scottsbluff,NE,41.8666341,-103.6671662
Bedford,NH,42.9464737,-71.5159015
Concord,NH,43.2081366,-71.5375718
Greenland,NH,43.0361995,-70.8328322
Hooksett,NH,43.0967495,-71.4650684
Keene,NH,42.933692,-72.2781409
Nashua,NH,42.7653662,-71.467566
Nashua,NH,42.7653662,-71.467566
Salem,NH,42.7884226,-71.2008933
Somersworth,NH,43.2617503,-70.8653372
Brick,NJ,-9999,-9999
Bridgewater,NJ,-9999,-9999
Burlington,NJ,40.071222,-74.8648873
Cherry Hill,NJ,39.9348351,-75.0307264
Clark,NJ,40.6409361,-74.3107037
Clifton,NJ,40.8584328,-74.1637553
Delran,NJ,-9999,-9999
Deptford,NJ,-9999,-9999
East Hanover,NJ,40.8200998,-74.3648731
East Windsor,NJ,-9999,-9999
Edgewater,NJ,40.8270448,-73.975694
Fairfield,NJ,40.2053903,-74.2137551
Sicklerville,NJ,39.7173375,-74.9693329
Phillipsburg,NJ,40.6937099,-75.1901761
Hackensack,NJ,40.8859326,-74.0434736
Howell,NJ,-9999,-9999
Jersey City,NJ,40.7281575,-74.0776417
Linden,NJ,40.6220478,-74.2445902
Manalapan,NJ,40.2573326,-74.3957051
Sewell,NJ,39.7665029,-75.1443435
Marlton,NJ,39.8912248,-74.9218325
Mays Landing,NJ,39.4523385,-74.7276626
Edison,NJ,41.063986,-74.5676593
Middletown,NJ,39.271226,-74.7434965
Milltown,NJ,40.4534375,-75.0246142
Millville,NJ,41.3131498,-74.7798877
Mount Laurel,NJ,39.934002,-74.8909988
North Bergen,NJ,40.8042674,-74.012084
Ocean,NJ,-9999,-9999
Paramus,NJ,40.9445428,-74.0754189
Princeton,NJ,40.3487181,-74.6590472
Riverdale,NJ,40.9939865,-74.3034824
Rockaway,NJ,40.9012101,-74.5143232
Monmouth Junction,NJ,40.3789957,-74.5465436
South Plainfield,NJ,40.5792701,-74.4115401
Manahawkin,NJ,39.695397,-74.2587527
Toms River,NJ,39.9537291,-74.1979192
Turnersville,NJ,39.77317,-75.0512813
Vauxhall,NJ,40.7314901,-74.2829255
Union,NJ,40.6695453,-74.9240573
Voorhees,NJ,40.4812157,-74.4832088
Hackettstown,NJ,40.8539879,-74.8290555
Watchung,NJ,40.6378801,-74.4509863
Albuquerque,NM,35.0844909,-106.6511367
Albuquerque,NM,35.0844909,-106.6511367
Albuquerque,NM,35.0844909,-106.6511367
Albuquerque,NM,35.0844909,-106.6511367
Farmington,NM,36.7280583,-108.2186856
Las Cruces,NM,32.3123157,-106.7783374
Rio Rancho,NM,35.233375,-106.6644716
Roswell,NM,33.3942655,-104.5230242
Santa Fe,NM,35.6869752,-105.937799
Carson City,NV,39.1637984,-119.7674034
Henderson,NV,36.0396988,-114.9819368
Henderson,NV,36.0396988,-114.9819368
Henderson,NV,36.0396988,-114.9819368
Las Vegas,NV,36.1749705,-115.137223
Las Vegas,NV,36.1749705,-115.137223
Las Vegas,NV,36.1749705,-115.137223
Las Vegas,NV,36.1749705,-115.137223
Las Vegas,NV,36.1749705,-115.137223
Las Vegas,NV,36.1749705,-115.137223
Las Vegas,NV,36.1749705,-115.137223
Las Vegas,NV,36.1749705,-115.137223
Las Vegas,NV,36.1749705,-115.137223
North Las Vegas,NV,36.1988592,-115.1175013
Las Vegas,NV,36.1749705,-115.137223
North Las Vegas,NV,36.1988592,-115.1175013
Reno,NV,39.5296329,-119.8138027
Sparks,NV,39.5349112,-119.7526886
Las Vegas,NV,36.1749705,-115.137223
Amsterdam,NY,42.9386856,-74.1881858
Brooklyn,NY,42.3442482,-75.1704468
Batavia,NY,42.9981156,-78.1875167
Bay Shore,NY,40.7250986,-73.2453946
Elmira,NY,42.0897965,-76.8077338
Vestal,NY,42.0850747,-76.053813
Amherst,NY,42.978391,-78.7997559
Bronx,NY,40.8501002,-73.8662464
Brooklyn,NY,42.3442482,-75.1704468
Syracuse,NY,43.0481221,-76.1474244
Central Islip,NY,40.7906538,-73.2017811
Depew,NY,42.9039476,-78.6922515
Rochester,NY,43.1547845,-77.6155568
Cicero,NY,43.1756235,-76.1193678
West Nyack,NY,41.096485,-73.9729162
Liverpool,NY,43.106456,-76.2177046
Clifton Park,NY,42.8656325,-73.7709535
College Point,NY,40.7876014,-73.8459682
Colonie,NY,42.7178558,-73.8334554
Commack,NY,40.8428759,-73.2928943
Commack,NY,40.8428759,-73.2928943
Copiague,NY,40.6814892,-73.3998445
Rensselaer,NY,42.6425795,-73.742898
Williamsville,NY,42.963947,-78.7378091
Farmingdale,NY,40.7325997,-73.4454009
Fayetteville,NY,43.0297887,-76.0043643
Flushing,NY,40.7653796,-73.8173564
Brooklyn,NY,42.3442482,-75.1704468
Glenville,NY,41.0656523,-73.8406899
Rochester,NY,43.1547845,-77.6155568
New York,NY,40.7142691,-74.0059729
Rochester,NY,43.1547845,-77.6155568
Hicksville,NY,40.7684331,-73.5251253
Irondequoit,NY,43.2133955,-77.5797226
Kingston,NY,41.9270367,-73.9973608
Ithaca,NY,42.4406284,-76.4966071
Latham,NY,42.7470225,-73.7590088
Levittown,NY,40.7259336,-73.5142921
Medford,NY,40.8175985,-73.0001068
Middletown,NY,41.4459271,-74.4229341
Monroe,NY,41.3306493,-74.1868136
Mount Kisco,NY,41.2042616,-73.7270761
Mount Vernon,NY,40.9125992,-73.8370786
New Hartford,NY,43.073403,-75.2876661
Newburgh,NY,41.5034271,-74.0104179
Niagara Falls,NY,43.0944999,-79.0567111
Schenectady,NY,42.8142432,-73.9395687
Buffalo,NY,42.8864468,-78.8783689
Orchard Park,NY,42.7675593,-78.7439189
Fairport,NY,43.0986742,-77.4419378
Plattsburgh,NY,44.6994873,-73.4529124
Poughkeepsie,NY,41.7003713,-73.9209701
Elmhurst,NY,42.1181133,-79.2936594
Queensbury,NY,43.3772932,-73.6131714
Bronx,NY,40.8501002,-73.8662464
Riverhead,NY,40.9170435,-72.6620402
Saratoga Springs,NY,43.0831301,-73.7845651
South Setauket,NY,40.9137095,-73.1056641
Spring Valley,NY,41.1131514,-74.0437521
Staten Island,NY,40.5834379,-74.1495875
Victor,NY,42.9825634,-77.4088794
Cheektowaga,NY,42.9033917,-78.7547536
Watertown,NY,43.9747838,-75.9107565
Webster,NY,43.2122851,-77.4299939
Westbury,NY,43.2147888,-76.7107848
White Plains,NY,41.0339862,-73.7629097
Amherst,OH,41.3978217,-82.2223775
Avon,OH,41.4517093,-82.0354225
Aurora,OH,41.3175549,-81.3453858
Beavercreek,OH,39.7092262,-84.0632685
Cincinnati,OH,39.1620036,-84.4568863
Blue Ash,OH,39.2320029,-84.3782734
Boardman,OH,41.0242256,-80.6628528
North Canton,OH,40.875891,-81.4023356
Cincinnati,OH,39.1620036,-84.4568863
Cleveland,OH,41.4994954,-81.6954088
Cleveland,OH,41.4994954,-81.6954088
Cincinnati,OH,39.1620036,-84.4568863
Columbus,OH,39.9611755,-82.9987942
Reynoldsburg,OH,39.9547861,-82.8121191
Hilliard,OH,40.0333961,-83.1582451
Columbus,OH,39.9611755,-82.9987942
Dublin,OH,41.0031141,-80.7856355
Columbus,OH,39.9611755,-82.9987942
Cuyahoga Falls,OH,41.1339449,-81.4845585
Dayton,OH,39.7589478,-84.1916069
Elyria,OH,41.3683798,-82.1076486
Hamilton,OH,39.3995008,-84.5613355
Fairlawn,OH,41.127833,-81.609844
Fairview Park,OH,41.4414366,-81.8643039
Cincinnati,OH,39.1620036,-84.4568863
Columbus,OH,39.9611755,-82.9987942
Akron,OH,41.0814447,-81.5190053
Grove City,OH,39.8814519,-83.0929645
Heath,OH,40.0228421,-82.4445991
Hilliard,OH,40.0333961,-83.1582451
Huber Heights,OH,39.843947,-84.1246608
Lancaster,OH,39.7136754,-82.5993294
Northfield,OH,41.3450547,-81.528452
Mansfield,OH,40.75839,-82.5154471
Massillon,OH,40.7967244,-81.5215093
Mayfield Heights,OH,41.5192189,-81.457896
Medina,OH,41.1383878,-81.8637474
Mentor,OH,41.6661573,-81.339552
Middletown,OH,40.7736685,-82.7918473
Milford,OH,39.1753377,-84.2943821
Niles,OH,41.1828353,-80.765358
North Olmsted,OH,41.4156025,-81.9234726
Parma,OH,41.4047742,-81.7229086
Columbus,OH,39.9611755,-82.9987942
Reynoldsburg,OH,39.9547861,-82.8121191
Sandusky,OH,41.4489397,-82.7079605
South Lebanon,OH,39.3708927,-84.2132698
Springdale,OH,39.287002,-84.4852213
Springfield,OH,39.9242266,-83.8088172
Stow,OH,41.1595005,-81.4403898
Streetsboro,OH,41.2392227,-81.3459405
Strongsville,OH,41.3144966,-81.83569
Dayton,OH,39.7589478,-84.1916069
Toledo,OH,41.6639383,-83.555212
Toledo,OH,41.6639383,-83.555212
Rossford,OH,41.6097726,-83.5643782
Holland,OH,41.621718,-83.711604
Trotwood,OH,39.7972788,-84.3113334
University Heights,OH,39.2842399,-82.1387564
Wadsworth,OH,41.0256101,-81.7298519
West Chester,OH,40.2336795,-81.3442776
Cincinnati,OH,39.1620036,-84.4568863
Whitehall,OH,39.9667308,-82.8854559
Willoughby,OH,41.6397696,-81.4065011
Broken Arrow,OK,36.0525993,-95.7908195
Edmond,OK,35.6528323,-97.4780954
Midwest City,OK,35.4495065,-97.3967019
Moore,OK,35.3395079,-97.4867028
Norman,OK,35.2225668,-97.4394777
Oklahoma City,OK,35.4675602,-97.5164276
Oklahoma City,OK,35.4675602,-97.5164276
Oklahoma City,OK,35.4675602,-97.5164276
Owasso,OK,36.2695388,-95.8547119
Oklahoma City,OK,35.4675602,-97.5164276
Tulsa,OK,36.1539816,-95.992775
Tulsa,OK,36.1539816,-95.992775
Tulsa,OK,36.1539816,-95.992775
Tulsa,OK,36.1539816,-95.992775
Yukon,OK,35.5067215,-97.7625442
Albany,OR,44.6365107,-123.1059282
Beaverton,OR,45.487062,-122.8037102
Bend,OR,44.0581728,-121.3153096
Clackamas,OR,45.4076205,-122.5703692
Eugene,OR,44.0520691,-123.0867536
Fairview,OR,43.2167775,-124.0737143
Hillsboro,OR,45.5228939,-122.989827
Keizer,OR,44.9901194,-123.0262077
Medford,OR,42.3265153,-122.8755949
Portland,OR,45.5234515,-122.6762071
Portland,OR,45.5234515,-122.6762071
Portland,OR,45.5234515,-122.6762071
Salem,OR,44.9428975,-123.0350963
Sherwood,OR,45.3565074,-122.840098
Springfield,OR,44.0462362,-123.0220289
Beaverton,OR,45.487062,-122.8037102
Tigard,OR,45.4312294,-122.7714861
Wilsonville,OR,45.2998418,-122.7737062
Abington,PA,40.1206656,-75.1179512
Allentown,PA,40.4275693,-79.9939418
Altoona,PA,40.5186809,-78.3947359
Butler,PA,40.8611755,-79.8953328
Carlisle,PA,40.2014771,-77.1888704
Monaca,PA,40.6872885,-80.2714505
Chambersburg,PA,39.9375911,-77.6611022
Philadelphia,PA,39.952335,-75.163789
Glen Mills,PA,39.9192772,-75.4915896
Cranberry Twp,PA,-9999,-9999
Dickson City,PA,41.4714693,-75.607688
East Liberty,PA,40.4606245,-79.922829
Erie,PA,42.1292241,-80.085059
Reading,PA,40.3356483,-75.9268747
Exton,PA,40.0289955,-75.6207651
Greensburg,PA,40.3014581,-79.5389289
Hanover,PA,39.8006554,-76.9830358
Allentown,PA,40.4275693,-79.9939418
Pittsburgh,PA,40.4406248,-79.9958864
Harrisburg,PA,40.2737002,-76.8844179
Harrisburg,PA,40.2737002,-76.8844179
Lancaster,PA,40.0378755,-76.3055144
Easton,PA,41.1272847,-79.5408798
Malvern,PA,40.0362185,-75.5138118
Pittsburgh,PA,40.4406248,-79.9958864
Mechanicsburg,PA,40.5617332,-80.4028424
Monroeville,PA,40.4211798,-79.7881025
North Wales,PA,40.2109404,-75.2782317
Pittsburgh,PA,40.4406248,-79.9958864
Temple,PA,40.4087043,-75.9215962
Bensalem,PA,40.1045549,-74.951279
Pittsburgh,PA,40.4406248,-79.9958864
North Huntingdon,PA,-9999,-9999
Langhorne,PA,40.1745538,-74.9226665
Philadelphia,PA,39.952335,-75.163789
Philadelphia,PA,39.952335,-75.163789
Philadelphia,PA,39.952335,-75.163789
Philadelphia,PA,39.952335,-75.163789
Philadelphia,PA,39.952335,-75.163789
Plymouth Meeting,PA,40.102332,-75.2743467
Gibsonia,PA,40.6300671,-79.9695004
Quakertown,PA,40.4417682,-75.3415667
Pittsburgh,PA,40.4406248,-79.9958864
Selinsgrove,PA,40.7989736,-76.8621935
Uniontown,PA,40.7047883,-78.8305848
Wyomissing,PA,40.329537,-75.9652117
Springfield,PA,39.9306677,-75.3201879
Springfield,PA,39.9306677,-75.3201879
State College,PA,40.793395,-77.8600013
Stroudsburg,PA,40.9867609,-75.1946248
Royersford,PA,40.1842688,-75.5379639
Oaks,PA,40.1317722,-75.4596319
Exton,PA,40.0289955,-75.6207651
Warrington,PA,40.2492741,-75.1340604
Lititz,PA,40.1573169,-76.3069014
Washington,PA,40.2023089,-77.4780419
Homestead,PA,40.4059025,-79.9119948
West Mifflin,PA,40.3634026,-79.8664375
Pottstown,PA,40.2453741,-75.6496302
Wilkes-Barre Township,PA,-9999,-9999
Muncy,PA,41.2056373,-76.7855152
York,PA,39.9625984,-76.727745
York,PA,39.9625984,-76.727745
Lincoln,RI,-9999,-9999
Smithfield,RI,41.9220433,-71.549507
Warwick,RI,41.700101,-71.4161671
Warwick,RI,41.700101,-71.4161671
Aiken,SC,33.5604168,-81.7195533
Anderson,SC,34.5034394,-82.6501333
Charleston,SC,32.7765656,-79.9309216
Columbia,SC,34.0007104,-81.0348144
Columbia,SC,34.0007104,-81.0348144
Columbia,SC,34.0007104,-81.0348144
Florence,SC,34.1954331,-79.7625625
Greenville,SC,34.8526176,-82.3940105
Taylors,SC,34.9203946,-82.2962269
Bluffton,SC,32.2371465,-80.8603868
Lexington,SC,33.9815369,-81.2362107
Mount Pleasant,SC,32.7940651,-79.8625851
Myrtle Beach,SC,33.6890603,-78.8866943
Myrtle Beach,SC,33.6890603,-78.8866943
North Charleston,SC,32.8546197,-79.9748103
Rock Hill,SC,34.2518165,-81.2550938
Simpsonville,SC,34.7370639,-82.2542834
Spartanburg,SC,34.9495672,-81.9320482
Summerville,SC,34.2090367,-81.3095413
Aberdeen,SD,45.4646985,-98.4864829
Rapid City,SD,44.0805434,-103.2310149
Sioux Falls,SD,43.5499749,-96.700327
Sioux Falls,SD,43.5499749,-96.700327
Watertown,SD,44.8994088,-97.1150732
Brentwood,TN,35.9561913,-84.0951913
Chattanooga,TN,35.0456297,-85.3096801
Hixson,TN,35.1406267,-85.2327349
Clarksville,TN,36.5297706,-87.3594529
Cleveland,TN,35.1595182,-84.8766115
Collierville,TN,35.042036,-89.6645266
Franklin,TN,35.9250637,-86.86889
Cordova,TN,35.1556451,-89.7761955
Knoxville,TN,35.9606384,-83.9207392
Franklin,TN,35.9250637,-86.86889
Germantown,TN,35.0867577,-89.8100858
Hendersonville,TN,36.3047735,-86.6199957
Cane Ridge,TN,36.022863,-86.644192
Jackson,TN,35.6145169,-88.8139469
Johnson City,TN,36.3134397,-82.3534727
Kingsport,TN,36.548434,-82.5618186
Knoxville,TN,35.9606384,-83.9207392
Knoxville,TN,35.9606384,-83.9207392
Knoxville,TN,35.9606384,-83.9207392
Knoxville,TN,35.9606384,-83.9207392
Maryville,TN,35.7564719,-83.9704593
Memphis,TN,35.1495343,-90.0489801
Memphis,TN,35.1495343,-90.0489801
Memphis,TN,35.1495343,-90.0489801
Memphis,TN,35.1495343,-90.0489801
Mount Juliet,TN,36.200055,-86.5186054
Murfreesboro,TN,35.8456213,-86.39027
Nashville,TN,36.1658899,-86.7844432
Nashville,TN,36.1658899,-86.7844432
Madison,TN,36.2561646,-86.7138861
Smyrna,TN,35.6328484,-85.7138683
Spring Hill,TN,35.681736,-88.5692191
Nashville,TN,36.1658899,-86.7844432
Abilene,TX,32.4487364,-99.7331439
Addison,TX,32.96179,-96.8291685
San Antonio,TX,29.4241219,-98.4936282
Allen,TX,33.1031744,-96.6705503
Allen,TX,33.1031744,-96.6705503
Amarillo,TX,35.2219971,-101.8312969
Arlington,TX,32.735687,-97.1080656
Atascocita,TX,29.9988306,-95.1765978
Austin,TX,30.267153,-97.7430608
Austin,TX,30.267153,-97.7430608
Austin,TX,30.267153,-97.7430608
Austin,TX,30.267153,-97.7430608
Austin,TX,30.267153,-97.7430608
Austin,TX,30.267153,-97.7430608
Austin,TX,30.267153,-97.7430608
Austin,TX,30.267153,-97.7430608
Balcones Heights,TX,29.4880086,-98.5516856
Webster,TX,29.5377315,-95.1182645
Baytown,TX,29.7355047,-94.9774274
Beaumont,TX,30.0860459,-94.1018461
Bee Cave,TX,30.3085373,-97.94501
San Antonio,TX,29.4241219,-98.4936282
Brownsville,TX,25.9017472,-97.4974838
Bryan,TX,30.6743643,-96.3699632
Burleson,TX,32.5420821,-97.3208492
Carrollton,TX,32.9537349,-96.8902816
Cedar Hill,TX,32.5884689,-96.9561152
Cedar Park,TX,30.505198,-97.8202888
Dallas,TX,32.7830556,-96.8066667
Fort Worth,TX,32.725409,-97.3208496
Clear Lake Shores,TX,29.547452,-95.0321506
College Station,TX,30.627977,-96.3344068
Conroe,TX,30.3118769,-95.4560512
Houston,TX,29.7632836,-95.3632715
Corpus Christi,TX,27.8005828,-97.396381
Cypress,TX,29.9691116,-95.6971686
Dallas,TX,32.7830556,-96.8066667
Dallas,TX,32.7830556,-96.8066667
Denton,TX,33.2148412,-97.1330683
Fort Worth,TX,32.725409,-97.3208496
El Paso,TX,31.7587198,-106.4869314
El Paso,TX,31.7587198,-106.4869314
El Paso,TX,31.7587198,-106.4869314
El Paso,TX,31.7587198,-106.4869314
Euless,TX,32.8370727,-97.0819541
Flower Mound,TX,33.0145673,-97.0969552
Fort Worth,TX,32.725409,-97.3208496
Austin,TX,30.267153,-97.7430608
Frisco,TX,33.1506744,-96.8236116
Frisco,TX,33.1506744,-96.8236116
Houston,TX,29.7632836,-95.3632715
Galveston,TX,29.3013889,-94.7977778
Garland,TX,33.5165025,-94.6693763
Georgetown,TX,30.6326942,-97.6772311
Grand Prairie,TX,32.7459645,-96.9977846
Grand Prairie,TX,32.7459645,-96.9977846
Grapevine,TX,32.9342919,-97.0780654
Harker Heights,TX,31.0835102,-97.6597377
Harlingen,TX,26.1906306,-97.6961026
Houston,TX,29.7632836,-95.3632715
Houston,TX,29.7632836,-95.3632715
Houston,TX,29.7632836,-95.3632715
Houston,TX,29.7632836,-95.3632715
Houston,TX,29.7632836,-95.3632715
Spring,TX,30.0799405,-95.4171601
Houston,TX,29.7632836,-95.3632715
Houston,TX,29.7632836,-95.3632715
Tomball,TX,30.0971621,-95.6160549
Humble,TX,29.9988312,-95.2621553
Huntsville,TX,30.7235263,-95.5507771
Hurst,TX,32.8234621,-97.1705678
Irving,TX,32.8140177,-96.9488945
Irving,TX,32.8140177,-96.9488945
Houston,TX,29.7632836,-95.3632715
Katy,TX,29.7857853,-95.8243956
Kyle,TX,29.9891052,-97.8772267
San Antonio,TX,29.4241219,-98.4936282
Lake Jackson,TX,29.0338575,-95.4343859
Lake Worth,TX,32.8048507,-97.44502
Laredo,TX,27.506407,-99.5075421
Laredo,TX,27.506407,-99.5075421
Dickinson,TX,29.4607876,-95.0513173
Lewisville,TX,33.046233,-96.994174
Longview,TX,32.5007038,-94.7404891
Dallas,TX,32.7830556,-96.8066667
Lubbock,TX,33.5778631,-101.8551665
Lubbock,TX,33.5778631,-101.8551665
Lufkin,TX,31.3382406,-94.729097
Mansfield,TX,32.5631924,-97.1416768
McAllen,TX,26.2034071,-98.2300124
Mcallen,TX,26.2034071,-98.2300124
McAllen,TX,26.2034071,-98.2300124
McKinney,TX,33.1976164,-96.6152693
Mckinney,TX,33.1976164,-96.6152693
Dallas,TX,32.7830556,-96.8066667
Mesquite,TX,32.7667955,-96.5991593
Midland,TX,31.9973456,-102.0779147
Mission,TX,26.2159066,-98.3252932
Missouri City,TX,29.6185669,-95.5377215
San Antonio,TX,29.4241219,-98.4936282
New Braunfels,TX,29.7030024,-98.1244531
Dallas,TX,32.7830556,-96.8066667
Dallas,TX,32.7830556,-96.8066667
North Richland Hills,TX,32.8342952,-97.2289029
Odessa,TX,31.8456816,-102.3676431
San Antonio,TX,29.4241219,-98.4936282
Pasadena,TX,29.6910625,-95.2091006
Pearland,TX,29.5635666,-95.2860474
Pflugerville,TX,30.4393696,-97.6200043
Plano,TX,33.0198431,-96.6988856
Plano,TX,33.0198431,-96.6988856
Port Arthur,TX,29.8988258,-93.9287815
Richardson,TX,32.9481789,-96.7297206
Fort Worth,TX,32.725409,-97.3208496
Rockwall,TX,32.9312336,-96.4597089
Rosenberg,TX,29.5571825,-95.8085623
Round Rock,TX,30.5082551,-97.678896
Rowlett,TX,32.9029017,-96.56388
San Antonio,TX,29.4241219,-98.4936282
San Angelo,TX,31.4637723,-100.4370375
San Antonio,TX,29.4241219,-98.4936282
San Antonio,TX,29.4241219,-98.4936282
Selma,TX,29.5843948,-98.3058463
San Antonio,TX,29.4241219,-98.4936282
San Antonio,TX,29.4241219,-98.4936282
San Antonio,TX,29.4241219,-98.4936282
San Antonio,TX,29.4241219,-98.4936282
San Marcos,TX,29.8832749,-97.9413941
Sherman,TX,33.6356618,-96.6088805
Houston,TX,29.7632836,-95.3632715
San Antonio,TX,29.4241219,-98.4936282
Sugar Land,TX,29.6196787,-95.6349463
Temple,TX,31.0982344,-97.342782
Texarkana,TX,33.425125,-94.0476882
Houston,TX,29.7632836,-95.3632715
Tyler,TX,32.3512601,-95.3010624
Victoria,TX,28.8052674,-97.0035982
Lewisville,TX,33.046233,-96.994174
Waco,TX,31.549333,-97.1466695
Watauga,TX,32.8579056,-97.2547371
Waxahachie,TX,32.3865312,-96.8483311
Weatherford,TX,32.7592955,-97.7972545
Houston,TX,29.7632836,-95.3632715
Houston,TX,29.7632836,-95.3632715
Magnolia,TX,30.2093794,-95.7507815
Wichita Falls,TX,33.9137085,-98.4933873
Houston,TX,29.7632836,-95.3632715
The Woodlands,TX,30.1579935,-95.4893845
Wylie,TX,33.0151201,-96.5388789
American Fork,UT,40.3768954,-111.7957645
Centerville,UT,40.9180005,-111.8721601
Salt Lake City,UT,40.7607794,-111.8910474
Layton,UT,41.0602216,-111.9710529
Orem,UT,40.2968979,-111.6946475
Riverdale,UT,41.1768888,-112.0038311
Salt Lake City,UT,40.7607794,-111.8910474
Sandy,UT,-9999,-9999
South Jordan,UT,40.5621704,-111.929658
Saint George,UT,37.1041476,-113.5841233
West Jordan,UT,40.6096698,-111.9391031
West Jordan,UT,40.6096698,-111.9391031
West Valley City,UT,40.6916132,-112.0010501
Alexandria,VA,38.8048356,-77.0469214
Alexandria,VA,38.8048356,-77.0469214
Bristol,VA,36.5964948,-82.1884666
Chantilly,VA,38.8942786,-77.4310992
Charlottesville,VA,38.0293059,-78.4766781
Chesapeake,VA,37.3079157,-75.9518758
Chesapeake,VA,37.3079157,-75.9518758
Chesapeake,VA,37.3079157,-75.9518758
Chester,VA,37.3568157,-77.4416505
Christiansburg,VA,37.1298517,-80.4089389
Colonial Heights,VA,36.9248694,-76.2460504
Culpeper,VA,38.4731815,-77.9966639
Danville,VA,36.5859718,-79.3950228
Dumfries,VA,38.5676202,-77.3280382
Fairfax,VA,38.8462236,-77.3063733
Fairfax,VA,38.8462236,-77.3063733
Falls Church,VA,38.882334,-77.1710914
Richmond,VA,37.5537575,-77.4602617
Fredericksburg,VA,37.8929082,-79.4378166
Fredericksburg,VA,37.8929082,-79.4378166
Front Royal,VA,38.9181671,-78.1944446
Gainesville,VA,38.7956706,-77.6138802
Hampton,VA,37.0298687,-76.3452218
Harrisonburg,VA,38.4495688,-78.8689156
Leesburg,VA,39.1156615,-77.5636015
Lynchburg,VA,37.4137536,-79.1422464
Manassas,VA,38.7509488,-77.4752667
Manassas,VA,38.7509488,-77.4752667
Mechanicsville,VA,37.7131892,-79.4058692
Fairfax,VA,38.8462236,-77.3063733
Newport News,VA,36.9787588,-76.428003
Norfolk,VA,36.8468146,-76.2852183
Woodbridge,VA,38.6581723,-77.2497049
Reston,VA,38.9687213,-77.3410958
Midlothian,VA,37.5059814,-77.6491578
Richmond,VA,37.5537575,-77.4602617
Richmond,VA,37.5537575,-77.4602617
Midlothian,VA,37.5059814,-77.6491578
Glen Allen,VA,37.665978,-77.5063739
Richmond,VA,37.5537575,-77.4602617
Richmond,VA,37.5537575,-77.4602617
Roanoke,VA,37.2709704,-79.9414267
Falls Church,VA,38.882334,-77.1710914
Springfield,VA,37.2707012,-76.634677
Stafford,VA,-9999,-9999
Fredericksburg,VA,37.8929082,-79.4378166
Sterling,VA,39.0062204,-77.4285992
Sterling,VA,39.0062204,-77.4285992
Virginia Beach,VA,36.8529263,-75.977985
Virginia Beach,VA,36.8529263,-75.977985
Virginia Beach,VA,36.8529263,-75.977985
Virginia Beach,VA,36.8529263,-75.977985
Glen Allen,VA,37.665978,-77.5063739
Waynesboro,VA,38.0684693,-78.8894682
Williamsburg,VA,37.2707022,-76.7074571
Williamsburg,VA,37.2707022,-76.7074571
Winchester,VA,39.1856597,-78.1633341
Winchester,VA,39.1856597,-78.1633341
Bellingham,WA,48.7595529,-122.4882249
Bonney Lake,WA,47.1770457,-122.1865056
Burlington,WA,48.4756621,-122.3254375
Everett,WA,47.9789848,-122.2020794
Bellevue,WA,47.610377,-122.2006786
Federal Way,WA,47.3223221,-122.3126222
Gig Harbor,WA,47.329264,-122.5801293
Issaquah,WA,47.5301011,-122.0326191
Kennewick,WA,46.2112458,-119.1372338
Kent,WA,47.3809335,-122.2348431
Lacey,WA,47.0342629,-122.8231915
Lake Stevens,WA,48.015098,-122.0637425
Lakewood,WA,47.1717649,-122.518458
Kelso,WA,46.146779,-122.9084445
Lynnwood,WA,47.8209301,-122.3151313
Marysville,WA,48.0517637,-122.1770818
Spokane,WA,47.6587803,-117.4260466
Tacoma,WA,47.2528769,-122.4442906
Seattle,WA,47.6062095,-122.3320708
Olympia,WA,47.0378741,-122.9006951
Puyallup,WA,47.1853785,-122.2928974
Puyallup,WA,47.1853785,-122.2928974
Redmond,WA,47.6739882,-122.121512
Renton,WA,47.4828776,-122.2170661
Richland,WA,46.2856907,-119.2844621
Seattle,WA,47.6062095,-122.3320708
Silverdale,WA,47.6445386,-122.6948697
Tukwila,WA,47.4739884,-122.2609558
Spokane,WA,47.6587803,-117.4260466
Vancouver,WA,45.6387281,-122.6614861
Vancouver,WA,45.6387281,-122.6614861
Vancouver,WA,45.6387281,-122.6614861
Wenatchee,WA,47.4234599,-120.3103494
Seattle,WA,47.6062095,-122.3320708
Woodinville,WA,47.7542651,-122.1634582
Yakima,WA,46.6020711,-120.5058987
Appleton,WI,44.2619309,-88.4153847
Appleton,WI,44.2619309,-88.4153847
Green Bay,WI,44.519159,-88.019826
Brookfield,WI,43.0605671,-88.1064787
Delafield,WI,43.060842,-88.4037079
Eau Claire,WI,44.811349,-91.4984941
Fitchburg,WI,42.9608322,-89.469843
Fond Du Lac,WI,43.7730448,-88.4470508
Franklin,WI,43.8355496,-87.9014803
Grafton,WI,43.3197265,-87.9534226
Green Bay,WI,44.519159,-88.019826
Greenfield,WI,42.9614039,-88.0125865
Hudson,WI,44.9746896,-92.7568703
Janesville,WI,42.6827885,-89.0187223
Sheboygan Falls,WI,43.7291617,-87.8106439
Onalaska,WI,43.8844092,-91.2351393
Lake Geneva,WI,42.5916836,-88.4334301
Madison,WI,43.0730517,-89.4012302
Madison,WI,43.0730517,-89.4012302
Madison,WI,43.0730517,-89.4012302
Marshfield,WI,44.6688524,-90.1717987
Menomonee Falls,WI,43.1788967,-88.1173132
Milwaukee,WI,43.0389025,-87.9064736
New Berlin,WI,42.9764027,-88.1084224
Milwaukee,WI,43.0389025,-87.9064736
Oak Creek,WI,42.8858503,-87.8631362
Oshkosh,WI,44.0247062,-88.5426136
Pleasant Prairie,WI,42.5530753,-87.9334118
Racine,WI,42.7261309,-87.7828523
Stevens Point,WI,44.5235792,-89.574563
Sturgeon Bay,WI,44.8341639,-87.3770419
Sun Prairie,WI,43.1836046,-89.2137254
Superior,WI,46.7207737,-92.1040796
Waukesha,WI,43.0116784,-88.2314813
Waukesha,WI,43.0116784,-88.2314813
Schofield,WI,44.9096907,-89.6045659
Wauwatosa,WI,43.0494572,-88.0075875
West Allis,WI,43.0166806,-88.0070315
West Milwaukee,WI,43.0125142,-87.9725861
Barboursville,WV,38.4095298,-82.2945923
Bridgeport,WV,39.2864787,-80.2561981
Charleston,WV,38.3498195,-81.6326235
Martinsburg,WV,39.4562099,-77.9638869
Morgantown,WV,39.629526,-79.9558968
Triadelphia,WV,40.0525734,-80.6284097
Casper,WY,42.866632,-106.313081
Cheyenne,WY,41.1399814,-104.8202462
